[{"OBJECT_NAME":"LEMUR-2-ANDIS","OBJECT_ID":"2017-042P","EPOCH":"2026-03-09T13:25:33.116448","MEAN_MOTION":15.30557934,"ECCENTRICITY":0.0009101,"INCLINATION":97.3659,"RA_OF_ASC_NODE":249.795,"ARG_OF_PERICENTER":4.3248,"MEAN_ANOMALY":355.807,"EPHEMERIS_TYPE":0,"CLASSIFICATION_TYPE":"U","NORAD_CAT_ID":42838,"ELEMENT_SET_NO":999,"REV_AT_EPOCH":47319,"BSTAR":0.00079875,"MEAN_MOTION_DOT":0.00023598,"MEAN_MOTION_DDOT":0},{"OBJECT_NAME":"STARLINK-32535","OBJECT_ID":"2024-222F","EPOCH":"2026-03-09T12:58:25.946112","MEAN_MOTION":15.27576808,"ECCENTRICITY":0.00013602,"INCLINATION":43.001,"RA_OF_ASC_NODE":133.788,"ARG_OF_PERICENTER":291.5845,"MEAN_ANOMALY":68.4862,"EPHEMERIS_TYPE":0,"CLASSIFICATION_TYPE":"U","NORAD_CAT_ID":62119,"ELEMENT_SET_NO":999,"REV_AT_EPOCH":7277,"BSTAR":0.0011296195,"MEAN_MOTION_DOT":0.0003095,"MEAN_MOTION_DDOT":0}]
