LEMUR-2-ANDIS           
1 42838U 17042P   26068.55941107  .00023598  00000+0  79875-3 0  9998
2 42838  97.3659 249.7950 0009101   4.3248 355.8070 15.30557934473198
STARLINK-32535          
1 62119U 24222F   26068.54057808  .00030950  00000+0  11296-2 0  9997
2 62119  43.0010 133.7880 0001360 291.5845  68.4862 15.27576808 72779
